0 IRIDIUM 33 DEB
1 34363U 97051FF  13281.80537912  .00003734  00000-0  13796-2 0  4340
2 34363 086.3642 135.2536 0056769 033.0646 093.9188 14.31312278240916
0 IRIDIUM 33 DEB
1 34363U 97051FF  13283.13271111  .00005349  00000-0  19781-2 0  4359
2 34363 086.3642 134.6965 0056773 028.8399 093.2535 14.31330999241108
0 IRIDIUM 33 DEB
1 34363U 97051FF  13286.06776756  .00004654  00000-0  17197-2 0  4378
2 34363 086.3641 133.4646 0056729 019.9056 096.5101 14.31354576241520
0 IRIDIUM 33 DEB
1 34363U 97051FF  13287.51655075  .00005074  00000-0  18748-2 0  4380
2 34363 086.3636 132.8564 0056718 015.4962 001.6471 14.31365303241720
0 IRIDIUM 33 DEB
1 34363U 97051FF  13288.85303419  .00006384  00000-0  23598-2 0  4395
2 34363 086.3629 132.2954 0056681 011.4827 048.1586 14.31383492241928
0 IRIDIUM 33 DEB
1 34363U 97051FF  13290.31985652  .00006508  00000-0  24051-2 0  4409
2 34363 086.3622 131.6797 0056580 006.8599 046.5639 14.31396212242130
0 IRIDIUM 33 DEB
1 34363U 97051FF  13291.80223279  .00005516  00000-0  20374-2 0  4417
2 34363 086.3619 131.0570 0056505 002.2254 125.1566 14.31410935242349
0 IRIDIUM 33 DEB
1 34363U 97051FF  13292.83752436  .00005496  00000-0  20294-2 0  4422
2 34363 086.3619 130.6223 0056460 359.0339 059.9483 14.31420156242490
0 IRIDIUM 33 DEB
1 34363U 97051FF  13294.03789204  .00005686  00000-0  20995-2 0  4439
2 34363 086.3620 130.1182 0056391 355.2358 125.5053 14.31430601242661
0 IRIDIUM 33 DEB
1 34363U 97051FF  13295.49801014  .00006340  00000-0  23411-2 0  4449
2 34363 086.3622 129.5049 0056301 350.6213 089.6277 14.31444265242879
